[
  {
    "name": "ONEWEB-0368",
    "noradId": "49294",
    "line1": "1 49294U 21090R   26176.69758595  .00000014  00000+0  18770-5 0  9998",
    "line2": "2 49294  87.9187 272.7541 0001294  94.8033 265.3248 13.20770724232102"
  },
  {
    "name": "ONEWEB-0369",
    "noradId": "49295",
    "line1": "1 49295U 21090S   26176.82508897 -.00000046  00000+0 -14607-3 0  9992",
    "line2": "2 49295  87.9180 303.2533 0001820 100.6051 259.5286 13.19725273227555"
  },
  {
    "name": "ONEWEB-0370",
    "noradId": "49296",
    "line1": "1 49296U 21090T   26176.80869692  .00000006  00000+0 -16361-4 0  9999",
    "line2": "2 49296  87.9196 272.7221 0002249 102.5772 257.5613 13.20771430231009"
  },
  {
    "name": "ONEWEB-0371",
    "noradId": "49297",
    "line1": "1 49297U 21090U   26176.83296722  .00000015  00000+0  60860-5 0  9994",
    "line2": "2 49297  87.9185 303.2447 0001924 102.2961 257.8388 13.19724202227598"
  },
  {
    "name": "ONEWEB-0372",
    "noradId": "49298",
    "line1": "1 49298U 21090V   26176.79845348 -.00002667  00000+0 -65919-2 0  9998",
    "line2": "2 49298  87.9186 272.7250 0001720 103.9853 256.1471 13.20790858230977"
  },
  {
    "name": "ONEWEB-0373",
    "noradId": "49299",
    "line1": "1 49299U 21090W   26176.82384868  .00000052  00000+0  96404-4 0  9997",
    "line2": "2 49299  87.9194 272.7211 0002099  98.4275 261.7097 13.20771497232167"
  },
  {
    "name": "ONEWEB-0374",
    "noradId": "49300",
    "line1": "1 49300U 21090X   26176.79615378 -.00000239  00000+0 -67951-3 0  9992",
    "line2": "2 49300  87.8971 287.9823 0001968  83.0457 277.0897 13.14503361228692"
  },
  {
    "name": "ONEWEB-0375",
    "noradId": "49301",
    "line1": "1 49301U 21090Y   26176.81206765 -.00000036  00000+0 -12131-3 0  9997",
    "line2": "2 49301  87.9197 272.7153 0002132  83.7881 276.3495 13.20771703231665"
  },
  {
    "name": "ONEWEB-0376",
    "noradId": "49302",
    "line1": "1 49302U 21090Z   26176.83139993 -.00000023  00000+0 -90698-4 0  9999",
    "line2": "2 49302  87.9185 303.2451 0001790 104.7477 255.3854 13.19725623227599"
  },
  {
    "name": "ONEWEB-0377",
    "noradId": "49303",
    "line1": "1 49303U 21090AA  26176.79872566 -.00000109  00000+0 -29934-3 0  9994",
    "line2": "2 49303  87.9194 272.7198 0002166  94.5599 265.5782 13.20771900231653"
  },
  {
    "name": "ONEWEB-0378",
    "noradId": "49304",
    "line1": "1 49304U 21090AB  26176.81893922 -.00000062  00000+0 -18393-3 0  9992",
    "line2": "2 49304  87.9191 272.7205 0001988  96.0526 264.0834 13.20770238230922"
  },
  {
    "name": "ONEWEB-0379",
    "noradId": "49305",
    "line1": "1 49305U 21090AC  26176.71527686 -.00000177  00000+0 -51194-3 0  9996",
    "line2": "2 49305  87.8974 288.0089 0001891  96.9051 263.2293 13.14503583228686"
  },
  {
    "name": "ONEWEB-0380",
    "noradId": "49306",
    "line1": "1 49306U 21090AD  26176.82825102 -.00000031  00000+0 -10948-3 0  9994",
    "line2": "2 49306  87.9178 303.2499 0002088  95.6496 264.4874 13.19725282227568"
  },
  {
    "name": "ONEWEB-0381",
    "noradId": "49307",
    "line1": "1 49307U 21090AE  26176.71946907 -.00000031  00000+0 -10879-3 0  9993",
    "line2": "2 49307  87.9196 272.7402 0001999  91.9947 268.1415 13.20772724230957"
  },
  {
    "name": "ONEWEB-0382",
    "noradId": "49308",
    "line1": "1 49308U 21090AF  26176.70600211  .00000000  00000+0 -32640-4 0  9994",
    "line2": "2 49308  87.9199 272.7371 0001855  91.8338 268.3008 13.20771213230941"
  },
  {
    "name": "ONEWEB-0383",
    "noradId": "49309",
    "line1": "1 49309U 21090AG  26176.70893463 -.00000134  00000+0 -39478-3 0  9992",
    "line2": "2 49309  87.8977 288.0014 0001831  97.5437 262.5901 13.14501814228717"
  },
  {
    "name": "ONEWEB-0384",
    "noradId": "49310",
    "line1": "1 49310U 21090AH  26176.69437674  .00000002  00000+0 -26316-4 0  9991",
    "line2": "2 49310  87.9198 272.7832 0001796  88.2059 271.9280 13.20812718230958"
  },
  {
    "name": "ONEWEB-0385",
    "noradId": "49311",
    "line1": "1 49311U 21090AJ  26176.54774897  .00000030  00000+0  40762-4 0  9998",
    "line2": "2 49311  87.9196 272.7739 0001926  94.2875 265.8478 13.20773377230904"
  },
  {
    "name": "ONEWEB-0386",
    "noradId": "49312",
    "line1": "1 49312U 21090AK  26176.79186208  .00000014  00000+0  13988-5 0  9992",
    "line2": "2 49312  87.9199 272.7165 0001841  93.5291 266.6053 13.20772200230958"
  },
  {
    "name": "ONEWEB-0387",
    "noradId": "49313",
    "line1": "1 49313U 21090AL  26176.70094801  .00000036  00000+0  57580-4 0  9990",
    "line2": "2 49313  87.9193 272.7560 0002236  92.4731 267.6658 13.20773196230944"
  },
  {
    "name": "ONEWEB-0388",
    "noradId": "49314",
    "line1": "1 49314U 21090AM  26176.82351133 -.00000084  00000+0 -24283-3 0  9996",
    "line2": "2 49314  87.9176 303.2486 0001896  95.4901 264.6448 13.19724951227556"
  },
  {
    "name": "ONEWEB-0389",
    "noradId": "50469",
    "line1": "1 50469U 21132A   26176.55169693  .00000047  00000+0  87113-4 0  9993",
    "line2": "2 50469  87.9132   4.2038 0002059  80.5818 279.5546 13.17649559219188"
  },
  {
    "name": "ONEWEB-0390",
    "noradId": "50470",
    "line1": "1 50470U 21132B   26176.55338499  .00000022  00000+0  24468-4 0  9994",
    "line2": "2 50470  87.9133   4.2044 0002064  93.3267 266.8101 13.17649105219187"
  },
  {
    "name": "ONEWEB-0391",
    "noradId": "50471",
    "line1": "1 50471U 21132C   26176.55507293  .00000015  00000+0  65163-5 0  9995",
    "line2": "2 50471  87.9133   4.2138 0002593  79.0362 281.1061 13.17649255219187"
  },
  {
    "name": "ONEWEB-0392",
    "noradId": "50472",
    "line1": "1 50472U 21132D   26176.58545322  .00000034  00000+0  54041-4 0  9997",
    "line2": "2 50472  87.9142   4.1766 0002129  80.7394 279.3978 13.17649676219221"
  },
  {
    "name": "ONEWEB-0393",
    "noradId": "50473",
    "line1": "1 50473U 21132E   26176.48503476  .00000031  00000+0  46208-4 0  9994",
    "line2": "2 50473  87.9133   4.2132 0001944  84.7890 275.3463 13.17649451219203"
  },
  {
    "name": "ONEWEB-0394",
    "noradId": "50474",
    "line1": "1 50474U 21132F   26176.82390647 -.00000003  00000+0 -39514-4 0  9990",
    "line2": "2 50474  87.9175 333.7235 0001754  90.1821 269.9513 13.18688808222735"
  },
  {
    "name": "ONEWEB-0395",
    "noradId": "50475",
    "line1": "1 50475U 21132G   26176.63599233  .00000428  00000+0  11720-2 0  9998",
    "line2": "2 50475  87.8880  19.3848 0002048  87.6463 272.4899 13.11414543216820"
  },
  {
    "name": "ONEWEB-0396",
    "noradId": "50476",
    "line1": "1 50476U 21132H   26176.81716654 -.00000039  00000+0 -13069-3 0  9996",
    "line2": "2 50476  87.9179 333.7378 0001839  88.8542 271.2800 13.18685557222774"
  },
  {
    "name": "ONEWEB-0397",
    "noradId": "50477",
    "line1": "1 50477U 21132J   26176.83234225 -.00000020  00000+0 -83889-4 0  9996",
    "line2": "2 50477  87.9177 333.7347 0001722  87.1672 272.9657 13.18686084222758"
  },
  {
    "name": "ONEWEB-0398",
    "noradId": "50478",
    "line1": "1 50478U 21132K   26176.60376582 -.00000267  00000+0 -79043-3 0  9994",
    "line2": "2 50478  87.8890  19.3828 0002048  92.9821 267.1541 13.11418341216712"
  }
]