OBJECT_NAME,OBJECT_ID,EPOCH,MEAN_MOTION,ECCENTRICITY,INCLINATION,RA_OF_ASC_NODE,ARG_OF_PERICENTER,MEAN_ANOMALY,EPHEMERIS_TYPE,CLASSIFICATION_TYPE,NORAD_CAT_ID,ELEMENT_SET_NO,REV_AT_EPOCH,BSTAR,MEAN_MOTION_DOT,MEAN_MOTION_DDOT
ONEWEB-0368,2021-090R,2026-06-25T16:44:31.426080,13.20770724,.0001294,87.9187,272.7541,94.8033,265.3248,0,U,49294,999,23210,.1877E-5,.14E-6,0
ONEWEB-0369,2021-090S,2026-06-25T19:48:07.687008,13.19725273,.000182,87.9180,303.2533,100.6051,259.5286,0,U,49295,999,22755,-.14607E-3,-.46E-6,0
ONEWEB-0370,2021-090T,2026-06-25T19:24:31.413888,13.20771430,.0002249,87.9196,272.7221,102.5772,257.5613,0,U,49296,999,23100,-.16361E-4,.6E-7,0
ONEWEB-0371,2021-090U,2026-06-25T19:59:28.367808,13.19724202,.0001924,87.9185,303.2447,102.2961,257.8388,0,U,49297,999,22759,.6086E-5,.15E-6,0
ONEWEB-0372,2021-090V,2026-06-25T19:09:46.380672,13.20790858,.000172,87.9186,272.7250,103.9853,256.1471,0,U,49298,999,23097,-.65919E-2,-.2667E-4,0
ONEWEB-0373,2021-090W,2026-06-25T19:46:20.525952,13.20771497,.0002099,87.9194,272.7211,98.4275,261.7097,0,U,49299,999,23216,.96404E-4,.52E-6,0
ONEWEB-0374,2021-090X,2026-06-25T19:06:27.686592,13.14503361,.0001968,87.8971,287.9823,83.0457,277.0897,0,U,49300,999,22869,-.67951E-3,-.239E-5,0
ONEWEB-0375,2021-090Y,2026-06-25T19:29:22.644960,13.20771703,.0002132,87.9197,272.7153,83.7881,276.3495,0,U,49301,999,23166,-.12131E-3,-.36E-6,0
ONEWEB-0376,2021-090Z,2026-06-25T19:57:12.953952,13.19725623,.000179,87.9185,303.2451,104.7477,255.3854,0,U,49302,999,22759,-.90698E-4,-.23E-6,0
ONEWEB-0377,2021-090AA,2026-06-25T19:10:09.897024,13.20771900,.0002166,87.9194,272.7198,94.5599,265.5782,0,U,49303,999,23165,-.29934E-3,-.109E-5,0
ONEWEB-0378,2021-090AB,2026-06-25T19:39:16.348608,13.20770238,.0001988,87.9191,272.7205,96.0526,264.0834,0,U,49304,999,23092,-.18393E-3,-.62E-6,0
ONEWEB-0379,2021-090AC,2026-06-25T17:09:59.920704,13.14503583,.0001891,87.8974,288.0089,96.9051,263.2293,0,U,49305,999,22868,-.51194E-3,-.177E-5,0
ONEWEB-0380,2021-090AD,2026-06-25T19:52:40.888128,13.19725282,.0002088,87.9178,303.2499,95.6496,264.4874,0,U,49306,999,22756,-.10948E-3,-.31E-6,0
ONEWEB-0381,2021-090AE,2026-06-25T17:16:02.127648,13.20772724,.0001999,87.9196,272.7402,91.9947,268.1415,0,U,49307,999,23095,-.10879E-3,-.31E-6,0
ONEWEB-0382,2021-090AF,2026-06-25T16:56:38.582304,13.20771213,.0001855,87.9199,272.7371,91.8338,268.3008,0,U,49308,999,23094,-.3264E-4,0,0
ONEWEB-0383,2021-090AG,2026-06-25T17:00:51.952032,13.14501814,.0001831,87.8977,288.0014,97.5437,262.5901,0,U,49309,999,22871,-.39478E-3,-.134E-5,0
ONEWEB-0384,2021-090AH,2026-06-25T16:39:54.150336,13.20812718,.0001796,87.9198,272.7832,88.2059,271.9280,0,U,49310,999,23095,-.26316E-4,.2E-7,0
ONEWEB-0385,2021-090AJ,2026-06-25T13:08:45.511008,13.20773377,.0001926,87.9196,272.7739,94.2875,265.8478,0,U,49311,999,23090,.40762E-4,.3E-6,0
ONEWEB-0386,2021-090AK,2026-06-25T19:00:16.883712,13.20772200,.0001841,87.9199,272.7165,93.5291,266.6053,0,U,49312,999,23095,.13988E-5,.14E-6,0
ONEWEB-0387,2021-090AL,2026-06-25T16:49:21.908064,13.20773196,.0002236,87.9193,272.7560,92.4731,267.6658,0,U,49313,999,23094,.5758E-4,.36E-6,0
ONEWEB-0388,2021-090AM,2026-06-25T19:45:51.378912,13.19724951,.0001896,87.9176,303.2486,95.4901,264.6448,0,U,49314,999,22755,-.24283E-3,-.84E-6,0
ONEWEB-0389,2021-132A,2026-06-25T13:14:26.614752,13.17649559,.0002059,87.9132,4.2038,80.5818,279.5546,0,U,50469,999,21918,.87113E-4,.47E-6,0
ONEWEB-0390,2021-132B,2026-06-25T13:16:52.463136,13.17649105,.0002064,87.9133,4.2044,93.3267,266.8101,0,U,50470,999,21918,.24468E-4,.22E-6,0
ONEWEB-0391,2021-132C,2026-06-25T13:19:18.301152,13.17649255,.0002593,87.9133,4.2138,79.0362,281.1061,0,U,50471,999,21918,.65163E-5,.15E-6,0
ONEWEB-0392,2021-132D,2026-06-25T14:03:03.158208,13.17649676,.0002129,87.9142,4.1766,80.7394,279.3978,0,U,50472,999,21922,.54041E-4,.34E-6,0
ONEWEB-0393,2021-132E,2026-06-25T11:38:27.003264,13.17649451,.0001944,87.9133,4.2132,84.7890,275.3463,0,U,50473,999,21920,.46208E-4,.31E-6,0
ONEWEB-0394,2021-132F,2026-06-25T19:46:25.519008,13.18688808,.0001754,87.9175,333.7235,90.1821,269.9513,0,U,50474,999,22273,-.39514E-4,-.3E-7,0
ONEWEB-0395,2021-132G,2026-06-25T15:15:49.737312,13.11414543,.0002048,87.8880,19.3848,87.6463,272.4899,0,U,50475,999,21682,.1172E-2,.428E-5,0
ONEWEB-0396,2021-132H,2026-06-25T19:36:43.189056,13.18685557,.0001839,87.9179,333.7378,88.8542,271.2800,0,U,50476,999,22277,-.13069E-3,-.39E-6,0
ONEWEB-0397,2021-132J,2026-06-25T19:58:34.370400,13.18686084,.0001722,87.9177,333.7347,87.1672,272.9657,0,U,50477,999,22275,-.83889E-4,-.2E-6,0
ONEWEB-0398,2021-132K,2026-06-25T14:29:25.366848,13.11418341,.0002048,87.8890,19.3828,92.9821,267.1541,0,U,50478,999,21671,-.79043E-3,-.267E-5,0
